<?xml version="1.0" encoding="UTF-8"?>
<ndm xmlns:xsi="http://www.w3.org/2001/XMLSchema-instance" xsi:noNamespaceSchemaLocation="https://sanaregistry.org/r/ndmxml_unqualified/ndmxml-2.0.0-master-2.0.xsd">
<omm id="CCSDS_OMM_VERS" version="2.0">
<header><CREATION_DATE/><ORIGINATOR/></header><body><segment><metadata><OBJECT_NAME>IRIDIUM 112</OBJECT_NAME><OBJECT_ID>2017-003J</OBJECT_ID><CENTER_NAME>EARTH</CENTER_NAME><REF_FRAME>TEME</REF_FRAME><TIME_SYSTEM>UTC</TIME_SYSTEM><MEAN_ELEMENT_THEORY>SGP4</MEAN_ELEMENT_THEORY></metadata><data><meanElements><EPOCH>2025-03-27T11:24:43.029792</EPOCH><MEAN_MOTION>14.34220208</MEAN_MOTION><ECCENTRICITY>.0002246</ECCENTRICITY><INCLINATION>86.3905</INCLINATION><RA_OF_ASC_NODE>274.9429</RA_OF_ASC_NODE><ARG_OF_PERICENTER>90.2423</ARG_OF_PERICENTER><MEAN_ANOMALY>269.9030</MEAN_ANOMALY></meanElements><tleParameters><EPHEMERIS_TYPE>0</EPHEMERIS_TYPE><CLASSIFICATION_TYPE>U</CLASSIFICATION_TYPE><NORAD_CAT_ID>41925</NORAD_CAT_ID><ELEMENT_SET_NO>999</ELEMENT_SET_NO><REV_AT_EPOCH>42924</REV_AT_EPOCH><BSTAR>.11018E-3</BSTAR><MEAN_MOTION_DOT>.328E-5</MEAN_MOTION_DOT><MEAN_MOTION_DDOT>0</MEAN_MOTION_DDOT></tleParameters></data></segment></body></omm>
<omm id="CCSDS_OMM_VERS" version="2.0">
<header><CREATION_DATE/><ORIGINATOR/></header><body><segment><metadata><OBJECT_NAME>IRIDIUM 111</OBJECT_NAME><OBJECT_ID>2017-003K</OBJECT_ID><CENTER_NAME>EARTH</CENTER_NAME><REF_FRAME>TEME</REF_FRAME><TIME_SYSTEM>UTC</TIME_SYSTEM><MEAN_ELEMENT_THEORY>SGP4</MEAN_ELEMENT_THEORY></metadata><data><meanElements><EPOCH>2025-03-27T12:46:54.154272</EPOCH><MEAN_MOTION>14.34217100</MEAN_MOTION><ECCENTRICITY>.0001897</ECCENTRICITY><INCLINATION>86.3905</INCLINATION><RA_OF_ASC_NODE>274.9796</RA_OF_ASC_NODE><ARG_OF_PERICENTER>88.3211</ARG_OF_PERICENTER><MEAN_ANOMALY>271.8202</MEAN_ANOMALY></meanElements><tleParameters><EPHEMERIS_TYPE>0</EPHEMERIS_TYPE><CLASSIFICATION_TYPE>U</CLASSIFICATION_TYPE><NORAD_CAT_ID>41926</NORAD_CAT_ID><ELEMENT_SET_NO>999</ELEMENT_SET_NO><REV_AT_EPOCH>42923</REV_AT_EPOCH><BSTAR>-.17622E-4</BSTAR><MEAN_MOTION_DOT>-.3E-6</MEAN_MOTION_DOT><MEAN_MOTION_DDOT>0</MEAN_MOTION_DDOT></tleParameters></data></segment></body></omm>
<omm id="CCSDS_OMM_VERS" version="2.0">
<header><CREATION_DATE/><ORIGINATOR/></header><body><segment><metadata><OBJECT_NAME>IRIDIUM 113</OBJECT_NAME><OBJECT_ID>2017-039A</OBJECT_ID><CENTER_NAME>EARTH</CENTER_NAME><REF_FRAME>TEME</REF_FRAME><TIME_SYSTEM>UTC</TIME_SYSTEM><MEAN_ELEMENT_THEORY>SGP4</MEAN_ELEMENT_THEORY></metadata><data><meanElements><EPOCH>2025-03-27T13:58:31.287648</EPOCH><MEAN_MOTION>14.34214622</MEAN_MOTION><ECCENTRICITY>.0002755</ECCENTRICITY><INCLINATION>86.4006</INCLINATION><RA_OF_ASC_NODE>148.8588</RA_OF_ASC_NODE><ARG_OF_PERICENTER>92.8487</ARG_OF_PERICENTER><MEAN_ANOMALY>267.3024</MEAN_ANOMALY></meanElements><tleParameters><EPHEMERIS_TYPE>0</EPHEMERIS_TYPE><CLASSIFICATION_TYPE>U</CLASSIFICATION_TYPE><NORAD_CAT_ID>42803</NORAD_CAT_ID><ELEMENT_SET_NO>999</ELEMENT_SET_NO><REV_AT_EPOCH>40717</REV_AT_EPOCH><BSTAR>.79136E-4</BSTAR><MEAN_MOTION_DOT>.241E-5</MEAN_MOTION_DOT><MEAN_MOTION_DDOT>0</MEAN_MOTION_DDOT></tleParameters></data></segment></body></omm>
<omm id="CCSDS_OMM_VERS" version="2.0">
<header><CREATION_DATE/><ORIGINATOR/></header><body><segment><metadata><OBJECT_NAME>IRIDIUM 123</OBJECT_NAME><OBJECT_ID>2017-039B</OBJECT_ID><CENTER_NAME>EARTH</CENTER_NAME><REF_FRAME>TEME</REF_FRAME><TIME_SYSTEM>UTC</TIME_SYSTEM><MEAN_ELEMENT_THEORY>SGP4</MEAN_ELEMENT_THEORY></metadata><data><meanElements><EPOCH>2025-03-27T13:17:47.087808</EPOCH><MEAN_MOTION>14.34217701</MEAN_MOTION><ECCENTRICITY>.0001986</ECCENTRICITY><INCLINATION>86.4047</INCLINATION><RA_OF_ASC_NODE>180.2907</RA_OF_ASC_NODE><ARG_OF_PERICENTER>92.1409</ARG_OF_PERICENTER><MEAN_ANOMALY>268.0014</MEAN_ANOMALY></meanElements><tleParameters><EPHEMERIS_TYPE>0</EPHEMERIS_TYPE><CLASSIFICATION_TYPE>U</CLASSIFICATION_TYPE><NORAD_CAT_ID>42804</NORAD_CAT_ID><ELEMENT_SET_NO>999</ELEMENT_SET_NO><REV_AT_EPOCH>40593</REV_AT_EPOCH><BSTAR>.20279E-3</BSTAR><MEAN_MOTION_DOT>.588E-5</MEAN_MOTION_DOT><MEAN_MOTION_DDOT>0</MEAN_MOTION_DDOT></tleParameters></data></segment></body></omm>
<omm id="CCSDS_OMM_VERS" version="2.0">
<header><CREATION_DATE/><ORIGINATOR/></header><body><segment><metadata><OBJECT_NAME>IRIDIUM 120</OBJECT_NAME><OBJECT_ID>2017-039C</OBJECT_ID><CENTER_NAME>EARTH</CENTER_NAME><REF_FRAME>TEME</REF_FRAME><TIME_SYSTEM>UTC</TIME_SYSTEM><MEAN_ELEMENT_THEORY>SGP4</MEAN_ELEMENT_THEORY></metadata><data><meanElements><EPOCH>2025-03-27T13:49:23.212704</EPOCH><MEAN_MOTION>14.34217456</MEAN_MOTION><ECCENTRICITY>.0001878</ECCENTRICITY><INCLINATION>86.3995</INCLINATION><RA_OF_ASC_NODE>148.7020</RA_OF_ASC_NODE><ARG_OF_PERICENTER>100.0432</ARG_OF_PERICENTER><MEAN_ANOMALY>260.0976</MEAN_ANOMALY></meanElements><tleParameters><EPHEMERIS_TYPE>0</EPHEMERIS_TYPE><CLASSIFICATION_TYPE>U</CLASSIFICATION_TYPE><NORAD_CAT_ID>42805</NORAD_CAT_ID><ELEMENT_SET_NO>999</ELEMENT_SET_NO><REV_AT_EPOCH>40716</REV_AT_EPOCH><BSTAR>.29254E-3</BSTAR><MEAN_MOTION_DOT>.839E-5</MEAN_MOTION_DOT><MEAN_MOTION_DDOT>0</MEAN_MOTION_DDOT></tleParameters></data></segment></body></omm>
<omm id="CCSDS_OMM_VERS" version="2.0">
<header><CREATION_DATE/><ORIGINATOR/></header><body><segment><metadata><OBJECT_NAME>IRIDIUM 115</OBJECT_NAME><OBJECT_ID>2017-039D</OBJECT_ID><CENTER_NAME>EARTH</CENTER_NAME><REF_FRAME>TEME</REF_FRAME><TIME_SYSTEM>UTC</TIME_SYSTEM><MEAN_ELEMENT_THEORY>SGP4</MEAN_ELEMENT_THEORY></metadata><data><meanElements><EPOCH>2025-03-27T10:04:45.310368</EPOCH><MEAN_MOTION>14.43289516</MEAN_MOTION><ECCENTRICITY>.0001907</ECCENTRICITY><INCLINATION>86.4532</INCLINATION><RA_OF_ASC_NODE>148.8341</RA_OF_ASC_NODE><ARG_OF_PERICENTER>79.9964</ARG_OF_PERICENTER><MEAN_ANOMALY>280.1452</MEAN_ANOMALY></meanElements><tleParameters><EPHEMERIS_TYPE>0</EPHEMERIS_TYPE><CLASSIFICATION_TYPE>U</CLASSIFICATION_TYPE><NORAD_CAT_ID>42806</NORAD_CAT_ID><ELEMENT_SET_NO>999</ELEMENT_SET_NO><REV_AT_EPOCH>40982</REV_AT_EPOCH><BSTAR>.3274E-3</BSTAR><MEAN_MOTION_DOT>.1122E-4</MEAN_MOTION_DOT><MEAN_MOTION_DDOT>0</MEAN_MOTION_DDOT></tleParameters></data></segment></body></omm>
<omm id="CCSDS_OMM_VERS" version="2.0">
<header><CREATION_DATE/><ORIGINATOR/></header><body><segment><metadata><OBJECT_NAME>IRIDIUM 118</OBJECT_NAME><OBJECT_ID>2017-039E</OBJECT_ID><CENTER_NAME>EARTH</CENTER_NAME><REF_FRAME>TEME</REF_FRAME><TIME_SYSTEM>UTC</TIME_SYSTEM><MEAN_ELEMENT_THEORY>SGP4</MEAN_ELEMENT_THEORY></metadata><data><meanElements><EPOCH>2025-03-27T15:43:55.203456</EPOCH><MEAN_MOTION>14.34217788</MEAN_MOTION><ECCENTRICITY>.0002293</ECCENTRICITY><INCLINATION>86.4044</INCLINATION><RA_OF_ASC_NODE>180.2484</RA_OF_ASC_NODE><ARG_OF_PERICENTER>96.1983</ARG_OF_PERICENTER><MEAN_ANOMALY>263.9474</MEAN_ANOMALY></meanElements><tleParameters><EPHEMERIS_TYPE>0</EPHEMERIS_TYPE><CLASSIFICATION_TYPE>U</CLASSIFICATION_TYPE><NORAD_CAT_ID>42807</NORAD_CAT_ID><ELEMENT_SET_NO>999</ELEMENT_SET_NO><REV_AT_EPOCH>40595</REV_AT_EPOCH><BSTAR>.24452E-3</BSTAR><MEAN_MOTION_DOT>.705E-5</MEAN_MOTION_DOT><MEAN_MOTION_DDOT>0</MEAN_MOTION_DDOT></tleParameters></data></segment></body></omm>
<omm id="CCSDS_OMM_VERS" version="2.0">
<header><CREATION_DATE/><ORIGINATOR/></header><body><segment><metadata><OBJECT_NAME>IRIDIUM 117</OBJECT_NAME><OBJECT_ID>2017-039F</OBJECT_ID><CENTER_NAME>EARTH</CENTER_NAME><REF_FRAME>TEME</REF_FRAME><TIME_SYSTEM>UTC</TIME_SYSTEM><MEAN_ELEMENT_THEORY>SGP4</MEAN_ELEMENT_THEORY></metadata><data><meanElements><EPOCH>2025-03-27T12:50:22.982208</EPOCH><MEAN_MOTION>14.34215600</MEAN_MOTION><ECCENTRICITY>.0002085</ECCENTRICITY><INCLINATION>86.4043</INCLINATION><RA_OF_ASC_NODE>180.2606</RA_OF_ASC_NODE><ARG_OF_PERICENTER>89.1428</ARG_OF_PERICENTER><MEAN_ANOMALY>271.0007</MEAN_ANOMALY></meanElements><tleParameters><EPHEMERIS_TYPE>0</EPHEMERIS_TYPE><CLASSIFICATION_TYPE>U</CLASSIFICATION_TYPE><NORAD_CAT_ID>42808</NORAD_CAT_ID><ELEMENT_SET_NO>999</ELEMENT_SET_NO><REV_AT_EPOCH>40596</REV_AT_EPOCH><BSTAR>.86836E-4</BSTAR><MEAN_MOTION_DOT>.263E-5</MEAN_MOTION_DOT><MEAN_MOTION_DDOT>0</MEAN_MOTION_DDOT></tleParameters></data></segment></body></omm>

</ndm>
