IRIDIUM 112             
1 41925U 17003J   25086.47549803  .00000328  00000+0  11018-3 0  9999
2 41925  86.3905 274.9429 0002246  90.2423 269.9030 14.34220208429241
IRIDIUM 111             
1 41926U 17003K   25086.53257123 -.00000030  00000+0 -17622-4 0  9998
2 41926  86.3905 274.9796 0001897  88.3211 271.8202 14.34217100429232
IRIDIUM 113             
1 42803U 17039A   25086.58230657  .00000241  00000+0  79136-4 0  9990
2 42803  86.4006 148.8588 0002755  92.8487 267.3024 14.34214622407174
IRIDIUM 123             
1 42804U 17039B   25086.55401722  .00000588  00000+0  20279-3 0  9998
2 42804  86.4047 180.2907 0001986  92.1409 268.0014 14.34217701405937
IRIDIUM 120             
1 42805U 17039C   25086.57596311  .00000839  00000+0  29254-3 0  9991
2 42805  86.3995 148.7020 0001878 100.0432 260.0976 14.34217456407162
IRIDIUM 115             
1 42806U 17039D   25086.41996887  .00001122  00000+0  32740-3 0  9997
2 42806  86.4532 148.8341 0001907  79.9964 280.1452 14.43289516409828
IRIDIUM 118             
1 42807U 17039E   25086.65550004  .00000705  00000+0  24452-3 0  9998
2 42807  86.4044 180.2484 0002293  96.1983 263.9474 14.34217788405951
IRIDIUM 117             
1 42808U 17039F   25086.53498822  .00000263  00000+0  86836-4 0  9999
2 42808  86.4043 180.2606 0002085  89.1428 271.0007 14.34215600405966
